{
  "type": "FeatureCollection",
  "features": [
    {
      "type": "Feature",
      "properties": {
        "norad_id": 59600,
        "name": "GSAT0227 (GALILEO 30)",
        "group": "galileo",
        "lat": 20.373231937692296,
        "lon": -88.68722399904382,
        "alt_km": 23212.281700618703,
        "timestamp": "2025-12-09T04:51:47.756424+00:00",
        "meta_object_name": "GSAT0227 (GALILEO 30)",
        "meta_object_id": "2024-079C",
        "meta_epoch": "2025-12-08T08:44:01.424832",
        "meta_mean_motion": 1.70474656,
        "meta_eccentricity": 0.00032972,
        "meta_inclination": 54.9942,
        "meta_ra_of_asc_node": 106.4167,
        "meta_arg_of_pericenter": 114.0276,
        "meta_mean_anomaly": 245.9681,
        "meta_ephemeris_type": 0,
        "meta_classification_type": "U",
        "meta_norad_cat_id": 59600,
        "meta_element_set_no": 999,
        "meta_rev_at_epoch": 1011,
        "meta_bstar": 0,
        "meta_mean_motion_dot": 8e-08,
        "meta_mean_motion_ddot": 0,
        "tle_line1": "1 59600U 24079C   25342.36390538  .00000008  00000+0  00000+0 0  9991",
        "tle_line2": "2 59600  54.9942 106.4167 0003297 114.0276 245.9681  1.70474656 10110"
      },
      "geometry": {
        "type": "Point",
        "coordinates": [
          -88.68722399904382,
          20.373231937692296
        ]
      }
    },
    {
      "type": "Feature",
      "properties": {
        "norad_id": 61182,
        "name": "GSAT0232 (GALILEO 32)",
        "group": "galileo",
        "lat": -8.83305517842622,
        "lon": -139.65183963680988,
        "alt_km": 23228.086738077724,
        "timestamp": "2025-12-09T04:51:47.756435+00:00",
        "meta_object_name": "GSAT0232 (GALILEO 32)",
        "meta_object_id": "2024-167A",
        "meta_epoch": "2025-12-08T07:56:10.650912",
        "meta_mean_motion": 1.70473284,
        "meta_eccentricity": 0.0002045,
        "meta_inclination": 55.2425,
        "meta_ra_of_asc_node": 226.5518,
        "meta_arg_of_pericenter": 212.3949,
        "meta_mean_anomaly": 321.7655,
        "meta_ephemeris_type": 0,
        "meta_classification_type": "U",
        "meta_norad_cat_id": 61182,
        "meta_element_set_no": 999,
        "meta_rev_at_epoch": 762,
        "meta_bstar": 0,
        "meta_mean_motion_dot": 1.8e-07,
        "meta_mean_motion_ddot": 0,
        "tle_line1": "1 61182U 24167A   25342.33067883  .00000018  00000+0  00000+0 0  9999",
        "tle_line2": "2 61182  55.2425 226.5518 0002045 212.3949 321.7655  1.70473284  7623"
      },
      "geometry": {
        "type": "Point",
        "coordinates": [
          -139.65183963680988,
          -8.83305517842622
        ]
      }
    },
    {
      "type": "Feature",
      "properties": {
        "norad_id": 61183,
        "name": "GSAT0226 (GALILEO 31)",
        "group": "galileo",
        "lat": 53.51095257059267,
        "lon": -23.17738837059518,
        "alt_km": 23213.815833386165,
        "timestamp": "2025-12-09T04:51:47.756468+00:00",
        "meta_object_name": "GSAT0226 (GALILEO 31)",
        "meta_object_id": "2024-167B",
        "meta_epoch": "2025-12-08T04:07:13.317888",
        "meta_mean_motion": 1.70473397,
        "meta_eccentricity": 7.98e-05,
        "meta_inclination": 55.2409,
        "meta_ra_of_asc_node": 226.5616,
        "meta_arg_of_pericenter": 122.0254,
        "meta_mean_anomaly": 67.2121,
        "meta_ephemeris_type": 0,
        "meta_classification_type": "U",
        "meta_norad_cat_id": 61183,
        "meta_element_set_no": 999,
        "meta_rev_at_epoch": 759,
        "meta_bstar": 0,
        "meta_mean_motion_dot": 1.9e-07,
        "meta_mean_motion_ddot": 0,
        "tle_line1": "1 61183U 24167B   25342.17168192  .00000019  00000+0  00000+0 0  9998",
        "tle_line2": "2 61183  55.2409 226.5616 0000798 122.0254  67.2121  1.70473397  7595"
      },
      "geometry": {
        "type": "Point",
        "coordinates": [
          -23.17738837059518,
          53.51095257059267
        ]
      }
    }
  ]
}